SITE_NAME,STREET,LOCALITY,TOWN,COUNTY,POSTCODE,PARISH
AXMINSTER  COMMUNITY PRIMARY SCHOOL,STONEY LANE,,AXMINSTER,DEVON,EX135BU,Axminster CP
BROADCLYST  PRIMARY SCHOOL,SCHOOL LANE,BROADCLYST,EXETER,DEVON,EX53JG,Broad Clyst CP
CHERITON BISHOP COMMUNITY PRIMARY SCHOOL-MAIN COTTAGE CROSS SITE,CHURCH LANE,CHERITON BISHOP,EXETER,DEVON,EX66HY,Cheriton Bishop CP
CHERITON BISHOP COMMUNITY PRIMARY SCHOOL-ASHES COTTAGE SITE,CHURCH LANE,CHERITON BISHOP,EXETER,DEVON,EX66HY,Cheriton Bishop CP
CLYST HYDON PRIMARY SCHOOL-MAIN SCHOOL SITE,,CLYST HYDON,CULLOMPTON,DEVON,EX152ND,Clyst Hydon CP
CLYST HYDON PRIMARY SCHOOL-DETACHED PLAYING FIELD,,CLYST HYDON,CULLOMPTON,DEVON,EX152ND,Clyst Hydon CP
CLYST HYDON PRIMARY SCHOOL-VILLAGE HALL SITE,,CLYST HYDON,CULLOMPTON,DEVON,EX152ND,Clyst Hydon CP
CLYST ST MARY PRIMARY SCHOOL-MAIN SCHOOL SITE,,CLYST ST MARY,EXETER,DEVON,EX51BG,Clyst St. Mary CP
CLYST ST MARY PRIMARY SCHOOL-FOOTBALL GROUND,,CLYST ST MARY,EXETER,DEVON,EX51BG,Clyst St. Mary CP
COLYTON PRIMARY SCHOOL,THE BUTTS,WEST STREET,COLYTON,DEVON,EX246NU,Colyton CP
COPPLESTONE PRIMARY SCHOOL,BEWSLEY HILL,COPPLESTONE,CREDITON,DEVON,EX175NX,Copplestone CP
HAYWARDS PRIMARY SCHOOL,EAST STREET,,CREDITON,DEVON,EX173AX,Crediton CP
ST ANDREWS PRIMARY SCHOOL CULLOMPTON-MAIN SCHOOL SITE,ST ANDREWS ROAD,,CULLOMPTON,DEVON,EX151HU,Cullompton CP
ST ANDREWS PRIMARY SCHOOL CULLOMPTON-UPCOTT FIELD RECREATION GROUND,ST ANDREWS ROAD,,CULLOMPTON,DEVON,EX151HU,Cullompton CP
CULMSTOCK PRIMARY SCHOOL-MAIN SCHOOL SITE,,CULMSTOCK,CULLOMPTON,DEVON,EX153JP,Culmstock CP
CULMSTOCK PRIMARY SCHOOL-NEW PLAYING FIELD OFF PRESCOTT ROAD,,CULMSTOCK,CULLOMPTON,DEVON,EX153JP,Culmstock CP
CULMSTOCK PRIMARY SCHOOL-VILLAGE HALL,,CULMSTOCK,CULLOMPTON,DEVON,EX153JP,Culmstock CP
WILLOWBROOK SCHOOL,SUMMER LANE,WHIPTON,EXETER,DEVON,EX48NN,Exeter
LADYSMITH INFANTS SCHOOL,LADYSMITH ROAD,,EXETER,DEVON,EX12PS,Exeter
LADYSMITH JUNIOR SCHOOL,PRETORIA ROAD,,EXETER,DEVON,EX12PT,Exeter
NEWTOWN PRIMARY SCHOOL,CLIFTON ROAD,NEWTOWN,EXETER,DEVON,EX12ES,Exeter
REDHILLS COMMUNITY PRIMARY SCHOOL,LANDHAYES ROAD,REDHILLS,EXETER,DEVON,EX42BY,Exeter
ST THOMAS PRIMARY SCHOOL,UNION STREET,ST THOMAS,EXETER,DEVON,EX29BB,Exeter
STOKE HILL INFANTS & NURSERY SCHOOL,STOKE HILL,,EXETER,DEVON,EX47DB,Exeter
STOKE HILL JUNIOR SCHOOL,STOKE HILL,,EXETER,DEVON,EX47DP,Exeter
WHIPTON BARTON INFANTS AND NURSERY SCHOOL,HILL LANE,,EXETER,DEVON,EX13JP,Exeter
WHIPTON BARTON JUNIOR SCHOOL,HILL LANE,,EXETER,DEVON,EX13JP,Exeter
BRIXINGTON COMMUNITY NURSERY & PRIMARY SCHOOL-MAIN SCHOOL SITE,BRIXINGTON LANE,,EXMOUTH,DEVON,EX84JQ,Exmouth CP
BRIXINGTON COMMUNITY NURSERY & PRIMARY SCHOOL-FORMER INFANTS SCHOOL SITE,BRIXINGTON LANE,,EXMOUTH,DEVON,EX84JQ,
EXETER ROAD COMMUNITY PRIMARY SCHOOL,EXETER ROAD,,EXMOUTH,DEVON,EX81PU,Exmouth CP
MARPOOL PRIMARY SCHOOL,MOORFIELD ROAD,,EXMOUTH,DEVON,EX83QW,Exmouth CP
HALBERTON PRIMARY SCHOOL-MAIN SCHOOL SITE,CHURCH PATH,HALBERTON,TIVERTON,DEVON,EX167AT,Halberton CP
HALBERTON PRIMARY SCHOOL-PARISH FIELD,CHURCH PATH,HALBERTON,TIVERTON,DEVON,EX167AT,Halberton CP
HEMYOCK PRIMARY SCHOOL,PARKLANDS,HEMYOCK,CULLOMPTON,DEVON,EX153RY,Hemyock CP
HONITON PRIMARY SCHOOL,CLAPPER LANE,,HONITON,DEVON,EX141QF,Honiton CP
LITTLETOWN PRIMARY SCHOOL,HONITON BOTTOM ROAD,,HONITON,DEVON,EX142EG,Honiton CP
KILMINGTON PRIMARY SCHOOL-MAIN SCHOOL SITE,,KILMINGTON,AXMINSTER,DEVON,EX137RG,Kilmington CP
KILMINGTON PRIMARY SCHOOL-ADJACENT PLAYGROUND SITE,,KILMINGTON,AXMINSTER,DEVON,EX137RG,Kilmington CP
LAPFORD COMMUNITY PRIMARY SCHOOL,EASTINGTON ROAD,LAPFORD,CREDITON,DEVON,EX176QE,Lapford CP
MEMBURY COMMUNITY SCHOOL-MAIN SCHOOL SITE,,MEMBURY,AXMINSTER,DEVON,EX137AF,Membury CP
MEMBURY COMMUNITY SCHOOL-VILLAGE HALL,,MEMBURY,AXMINSTER,DEVON,EX137AF,Membury CP
MUSBURY PRIMARY SCHOOL-MAIN SCHOOL SITE,,MUSBURY,AXMINSTER,DEVON,EX138BB,Musbury CP
MUSBURY PRIMARY SCHOOL-CAR PARK,,MUSBURY,AXMINSTER,DEVON,EX138BB,Musbury CP
NEWTON POPPLEFORD PRIMARY SCHOOL,SCHOOL LANE,NEWTON POPPLEFORD,SIDMOUTH,DEVON,EX100EL,Newton Poppleford and Harpford CP
NEWTON ST CYRES PRIMARY SCHOOL,,NEWTON ST CYRES,EXETER,DEVON,EX55DD,Newton St. Cyres CP
OTTERY ST MARY PRIMARY SCHOOL,LONGDOGS LANE,,OTTERY ST MARY,DEVON,EX111HY,Ottery St. Mary CP
SANDFORD SCHOOL,,SANDFORD,CREDITON,DEVON,EX174NE,Sandford CP
SEATON PRIMARY SCHOOL,VALLEY VIEW,,SEATON,DEVON,EX122HF,Seaton CP
SHUTE COMMUNITY PRIMARY SCHOOL,HADDON ROAD,SHUTE,AXMINSTER,DEVON,EX137QR,Shute CP
BOLHAM COMMUNITY PRIMARY SCHOOL,,BOLHAM,TIVERTON,DEVON,EX167RA,Tiverton CP
HEATHCOAT PRIMARY SCHOOL,BROAD LANE,,TIVERTON,DEVON,EX165HE,Tiverton CP
UFFCULME PRIMARY SCHOOL-MAIN SCHOOL SITE,ASHLEY ROAD,UFFCULME,CULLOMPTON,DEVON,EX153AY,Uffculme CP
UFFCULME PRIMARY SCHOOL-MASONIC HALL CAR PARK,ASHLEY ROAD,UFFCULME,CULLOMPTON,DEVON,EX153AY,Uffculme CP
UPOTTERY PRIMARY,,UPOTTERY,HONITON,DEVON,EX149QT,Upottery CP
WHIMPLE PRIMARY SCHOOL-MAIN SCHOOL SITE,,WHIMPLE,EXETER,DEVON,EX52TS,Whimple CP
WHIMPLE PRIMARY SCHOOL-VICTORY HALL SITE,,WHIMPLE,EXETER,DEVON,EX52TS,Whimple CP
WHIMPLE PRIMARY SCHOOL-GREAT MEAD ORCHARD SITE,,WHIMPLE,EXETER,DEVON,EX52TS,Whimple CP
WILLAND SCHOOL,GABLES ROAD,WILLAND,CULLOMPTON,DEVON,EX152QL,Willand CP
YEOFORD COMMUNITY PRIMARY SCHOOL,,YEOFORD,CREDITON,DEVON,EX175HZ,Crediton Hamlets CP
LANDSCORE PRIMARY SCHOOL,,THRESHERS,CREDITON,DEVON,EX173JH,Crediton CP
BOWHILL PRIMARY SCHOOL-MAIN SCHOOL SITE,BUDDLE LANE,ST THOMAS,EXETER,DEVON,EX41JT,Exeter
BOWHILL PRIMARY SCHOOL-BARTON PLAYING FIELD,BUDDLE LANE,ST THOMAS,EXETER,DEVON,EX41JT,Exeter
TIDCOMBE PRIMARY SCHOOL,MARINA WAY,,TIVERTON,DEVON,EX164BP,Tiverton CP
WILLOWBANK PRIMARY SCHOOL-MAIN SCHOOL SITE,MANITOBA GARDENS,,CULLOMPTON,DEVON,EX151EZ,Cullompton CP
WILLOWBANK PRIMARY SCHOOL-KNOWLE LANE PLAYING FIELD,MANITOBA GARDENS,,CULLOMPTON,DEVON,EX151EZ,Cullompton CP
BASSETTS FARM PRIMARY SCHOOL,ST JOHNS ROAD,,EXMOUTH,DEVON,EX84GB,Exmouth CP
IDE PRIMARY SCHOOL,HIGH STREET,IDE,EXETER,DEVON,EX29RN,Ide CP
TEDBURN ST MARY SCHOOL,SCHOOL LANE,TEDBURN ST MARY,EXETER,DEVON,EX66AA,Tedburn St. Mary CP
SPREYTON SCHOOL-MAIN SCHOOL SITE,,SPREYTON,CREDITON,DEVON,EX175AJ,Spreyton CP
SPREYTON SCHOOL-PLAYING FIELD,,SPREYTON,CREDITON,DEVON,EX175AJ,
APPLEDORE COMMUNITY PRIMARY SCHOOL,RICHMOND ROAD,APPLEDORE,BIDEFORD,DEVON,EX391PF,Northam CP
ASHWATER PRIMARY SCHOOL-MAIN SCHOOL SITE,,ASHWATER,BEAWORTHY,DEVON,EX215EW,Ashwater CP
ASHWATER PRIMARY SCHOOL-CAR PARK SITE,,ASHWATER,BEAWORTHY,DEVON,EX215EW,Ashwater CP
FORCHES CROSS COMMUNITY PRIMARY SCHOOL,FORCHES AVENUE,,BARNSTAPLE,DEVON,EX328EF,Barnstaple CP
PILTON INFANTS SCHOOL,ABBEY ROAD,PILTON,BARNSTAPLE,DEVON,EX311JU,Barnstaple CP
BEAFORD COMMUNITY PRIMARY & NURSERY SCHOOL,,BEAFORD,WINKLEIGH,DEVON,EX198LJ,Beaford CP
EAST-THE-WATER COMMUNITY PRIMARY SCHOOL,MINES ROAD,EAST THE WATER,BIDEFORD,DEVON,EX394BX,Bideford CP
PYNES INFANT SCHOOL AND NURSERY-MAIN INFANTS SITE,CORONATION ROAD,,BIDEFORD,DEVON,EX393DD,Bideford CP
PYNES INFANT SCHOOL AND NURSERY-NURSERY SITE,CORONATION ROAD,,BIDEFORD,DEVON,EX393DD,Bideford CP
WEST CROFT JUNIOR SCHOOL,CORONATION ROAD,,BIDEFORD,DEVON,EX393DE,Bideford CP
BISHOPS NYMPTON PRIMARY SCHOOL-MAIN SCHOOL SITE,,BISHOPS NYMPTON,SOUTH MOLTON,DEVON,EX364PU,Bishop's Nympton CP
BISHOPS NYMPTON PRIMARY SCHOOL-RECREATION GROUND SITE,,BISHOPS NYMPTON,SOUTH MOLTON,DEVON,EX364PU,Bishop's Nympton CP
BISHOPS TAWTON PRIMARY SCHOOL,BISHOPS TAWTON ROAD,BISHOPS TAWTON,BARNSTAPLE,DEVON,EX320AE,Bishop's Tawton CP
BRADFORD PRIMARY SCHOOL-MAIN SCHOOL SITE,,HOLEMOOR,BRADFORD,DEVON,EX227AB,Bradford CP
BRADFORD PRIMARY SCHOOL-VILLAGE HALL SITE,,HOLEMOOR,BRADFORD,DEVON,EX227AB,Bradford CP
BRADWORTHY COMMUNITY PRIMARY SCHOOL-MAIN SCHOOL SITE,MILL ROAD,,BRADWORTHY,DEVON,EX227RT,Bradworthy CP
BRADWORTHY COMMUNITY PRIMARY SCHOOL- Part of MAIN SCHOOL SITE Unknown Tenure,MILL ROAD,,BRADWORTHY,DEVON,EX227RT,Bradworthy CP
BRATTON FLEMING COMMUNITY PRIMARY SCHOOL,,BRATTON FLEMING,BARNSTAPLE,DEVON,EX314SB,Bratton Fleming CP
CAEN COMMUNITY PRIMARY SCHOOL-MAIN SCHOOL SITE,CAEN STREET,,BRAUNTON,DEVON,EX331AD,Braunton CP
CAEN COMMUNITY PRIMARY SCHOOL-PLAYING FIELD,CAEN STREET,,BRAUNTON,DEVON,EX331AD,Braunton CP
SOUTHMEAD SCHOOL,WRAFTON ROAD,,BRAUNTON,DEVON,EX332BU,Braunton CP
BUCKLAND BREWER COMMUNITY PRIMARY SCHOOL,,BUCKLAND BREWER,BIDEFORD,DEVON,EX395LX,Buckland Brewer CP
CLAWTON PRIMARY SCHOOL,,CLAWTON,HOLSWORTHY,DEVON,EX226QN,Clawton CP
COMBE MARTIN PRIMARY SCHOOL,HANGMAN PATH,COMBE MARTIN,ILFRACOMBE,DEVON,EX340DF,Combe Martin CP
EAST ANSTEY PRIMARY SCHOOL,,EAST ANSTEY,TIVERTON,DEVON,EX169JP,East Anstey CP
EAST WORLINGTON PRIMARY SCHOOL-MAIN SCHOOL SITE,,EAST WORLINGTON,CREDITON,DEVON,EX174TS,East Worlington CP
FILLEIGH COMMUNITY PRIMARY SCHOOL-MAIN SCHOOL SITE,CASTLE HILL,FILLEIGH,BARNSTAPLE,DEVON,EX320RS,Filleigh CP
FILLEIGH COMMUNITY PRIMARY SCHOOL-VILLAGE HALL SITE,CASTLE HILL,FILLEIGH,BARNSTAPLE,DEVON,EX320RS,Filleigh CP
FREMINGTON COMMUNITY PRIMARY & NURSERY SCHOOL,BEECHFIELD ROAD,FREMINGTON,BARNSTAPLE,DEVON,EX313DD,Fremington CP
GREAT TORRINGTON BLUECOATS C OF E PRIMARY SCHOOL,BOROUGH ROAD,BURWOOD,TORRINGTON,DEVON,EX387NU,Great Torrington CP
HARTLAND PRIMARY SCHOOL,NORTH ROAD,HARTLAND,BIDEFORD,DEVON,EX396BP,Hartland CP
BRAYFORD PRIMARY SCHOOL,NORTH ROAD,BRAYFORD,BARNSTAPLE,DEVON,EX327QJ,Brayford CP
HORWOOD AND NEWTON TRACEY COMMUNITY PRIMARY SCHOOL-MAIN SCHOOL SITE,LOVACOTT,,BARNSTAPLE,DEVON,EX313PU,"Horwood, Lovacott and Newton Tracey CP"
HORWOOD AND NEWTON TRACEY COMMUNITY PRIMARY SCHOOL-VILLAGE HALL SITE,LOVACOTT,,BARNSTAPLE,DEVON,EX313PU,"Horwood, Lovacott and Newton Tracey CP"
ILFRACOMBE INFANT AND NURSERY SCHOOL,MARLBOROUGH ROAD,,ILFRACOMBE,DEVON,EX348JL,Ilfracombe CP
INSTOW COMMUNITY PRIMARY SCHOOL-MAIN SCHOOL SITE,,INSTOW,BIDEFORD,DEVON,EX394LU,Instow CP
INSTOW COMMUNITY PRIMARY SCHOOL-DETACHED CAR PARK,,INSTOW,BIDEFORD,DEVON,EX394LU,Instow CP
KENTISBURY PRIMARY SCHOOL-MAIN SCHOOL SITE,,KENTISBURY,BARNSTAPLE,DEVON,EX314NG,Kentisbury CP
KENTISBURY PRIMARY SCHOOL-VILLAGE HALL & CAR PARK,,KENTISBURY,BARNSTAPLE,DEVON,EX314NG,Kentisbury CP
KINGS NYMPTON COMMUNITY PRIMARY SCHOOL,,KINGS NYMPTON,UMBERLEIGH,DEVON,EX379SP,King's Nympton CP
LANGTREE COMMUNITY SCHOOL,,LANGTREE,GREAT TORRINGTON,DEVON,EX388NF,Langtree CP
MARWOOD SCHOOL-MAIN SCHOOL SITE,,"WHIDDON, MUDDIFORD",BARNSTAPLE,DEVON,EX314HF,Marwood CP
MARWOOD SCHOOL-WESTERN PIECE LANE CAR PARK & PLAYING FIELD OPPOSITE,,"WHIDDON, MUDDIFORD",BARNSTAPLE,DEVON,EX314HF,Marwood CP
MONKLEIGH PRIMARY SCHOOL,,MONKLEIGH,BIDEFORD,DEVON,EX395JY,Monkleigh CP
PARKHAM PRIMARY SCHOOL,,PARKHAM,BIDEFORD,DEVON,EX395PL,Parkham CP
ST GILES ON THE HEATH COMMUNITY SCHOOL,,ST GILES ON THE HEATH,LAUNCESTON,CORNWALL,PL159SD,St. Giles on the Heath CP
SHEBBEAR COMMUNITY SCHOOL,,SHEBBEAR,BEAWORTHY,DEVON,EX215SG,Shebbear CP
SHIRWELL COMMUNITY PRIMARY SCHOOL,SCHOOL LANE,SHIRWELL,BARNSTAPLE,DEVON,EX314JT,Shirwell CP
STICKLEPATH COMMUNITY SCHOOL,WOODVILLE ESTATE,,BARNSTAPLE,DEVON,EX312HH,Fremington CP
SUTCOMBE COMMUNITY PRIMARY SCHOOL,,SUTCOMBE,HOLSWORTHY,DEVON,EX227PW,Sutcombe CP
SUTCOMBE COMMUNITY PRIMARY SCHOOL - VILLAGE HALL,,SUTCOMBE,HOLSWORTHY,DEVON,EX227PW,Sutcombe CP
UMBERLEIGH COMMUNITY PRIMARY SCHOOL,,,UMBERLEIGH,DEVON,EX379AD,Chittlehampton CP
WEST DOWN SCHOOL,,WEST DOWN,ILFRACOMBE,DEVON,EX348NF,West Down CP
FORMER WEST AND EAST PUTFORD SCHOOL,,WEST PUTFORD,HOLSWORTHY,DEVON,EX227UT,West Putford CP
WINKLEIGH PRIMARY SCHOOL,FARMER FRANKS LANE,,WINKLEIGH,DEVON,EX198JQ,Winkleigh CP
WOOLACOMBE SCHOOL-MAIN SCHOOL SITE,BEACH ROAD,,WOOLACOMBE,DEVON,EX347BT,Mortehoe CP
WOOLACOMBE SCHOOL-ADJ WOOLACOMBE COURT SITE,BEACH ROAD,,WOOLACOMBE,DEVON,EX347BT,Mortehoe CP
WOOLACOMBE SCHOOL-MEADOW PLAYING FIELD,BEACH ROAD,,WOOLACOMBE,DEVON,EX347BT,Mortehoe CP
WOOLACOMBE SCHOOL-VILLAGE HALL & CAR PARK,BEACH ROAD,,WOOLACOMBE,DEVON,EX347BT,Mortehoe CP
WOOLSERY PRIMARY SCHOOL,,WOOLSERY,BIDEFORD,DEVON,EX395QS,Woolfardisworthy (Torridge) CP
YEO VALLEY PRIMARY SCHOOL-MAIN SCHOOL SITE,DERBY ROAD,,BARNSTAPLE,DEVON,EX327HB,Barnstaple CP
YEO VALLEY PRIMARY SCHOOL-PLAYING FIELD,DERBY ROAD,,BARNSTAPLE,DEVON,EX327HB,Barnstaple CP
KINGSACRE PRIMARY SCHOOL,KINGSACRE,GREENACRE,BRAUNTON,DEVON,EX331BN,Braunton CP
ABBOTSKERSWELL PRIMARY SCHOOL,,ABBOTSKERSWELL,NEWTON ABBOT,DEVON,TQ125NS,Abbotskerswell CP
ASHBURTON PRIMARY SCHOOL,WHISTLEY HILL,,ASHBURTON,DEVON,TQ137DW,Ashburton CP
BISHOPSTEIGNTON SCHOOL,COCKHAVEN CLOSE,BISHOPSTEIGNTON,TEIGNMOUTH,DEVON,TQ149RJ,Bishopsteignton CP
BLACKAWTON PRIMARY SCHOOL-MAIN SCHOOL SITE,,BLACKAWTON,TOTNES,DEVON,TQ97BE,Blackawton CP
BLACKAWTON PRIMARY SCHOOL-SCHOOL LANE PLAYING FIELD,,BLACKAWTON,TOTNES,DEVON,TQ97BE,Blackawton CP
BOVEY TRACEY PRIMARY SCHOOL-MAIN SCHOOL SITE,ABBEY ROAD,,BOVEY TRACEY,DEVON,TQ139HZ,Bovey Tracey CP
BOVEY TRACEY PRIMARY SCHOOL-PLAYING FIELD,ABBEY ROAD,,BOVEY TRACEY,DEVON,TQ139HZ,Bovey Tracey CP
BROADHEMPSTON VILLAGE PRIMARY SCHOOL-MAIN SCHOOL SITE,,BROADHEMPSTON,TOTNES,DEVON,TQ96BL,Broadhempston CP
BROADHEMPSTON VILLAGE PRIMARY SCHOOL-PLAYGROUND,,BROADHEMPSTON,TOTNES,DEVON,TQ96BL,Broadhempston CP
BROADHEMPSTON VILLAGE PRIMARY SCHOOL-VILLAGE HALL,,BROADHEMPSTON,TOTNES,DEVON,TQ96BL,Broadhempston CP
BUCKFASTLEIGH PRIMARY SCHOOL-MAIN SCHOOL SITE,BOSSELL ROAD,,BUCKFASTLEIGH,DEVON,TQ110DD,Buckfastleigh CP
CHRISTOW COMMUNITY SCHOOL,DRY LANE,CHRISTOW,EXETER,DEVON,EX67PE,Christow CP
COCKWOOD PRIMARY SCHOOL-MAIN SCHOOL SITE,COFTON HILL,COCKWOOD,EXETER,DEVON,EX68RB,Dawlish CP
COCKWOOD PRIMARY SCHOOL-VILLAGE HALL,COFTON HILL,COCKWOOD,EXETER,DEVON,EX68RB,Dawlish CP
COCKWOOD PRIMARY SCHOOL-PLAYING FIELD,COFTON HILL,COCKWOOD,EXETER,DEVON,EX68RB,Dawlish CP
DARTMOUTH ACADEMY - PRIMARY SCHOOL AND NURSERY SITE,MILTON LANE,,DARTMOUTH,DEVON,TQ69HW,Dartmouth CP
WESTCLIFF SCHOOL-MAIN SCHOOL SITE,FIRST AVENUE,,DAWLISH,DEVON,EX79RA,Dawlish CP
WESTCLIFF SCHOOL-FOOTBALL GROUND SITE,FIRST AVENUE,,DAWLISH,DEVON,EX79RA,Dawlish CP
DENBURY PRIMARY SCHOOL,WEST STREET,DENBURY,NEWTON ABBOT,DEVON,TQ126DP,Denbury and Torbryan CP
DODDISCOMBSLEIGH COMMUNITY SCHOOL,,DODDISCOMBSLEIGH,EXETER,DEVON,EX67PR,Doddiscombsleigh CP
DUNSFORD COMMUNITY PRIMARY SCHOOL-MAIN SCHOOL SITE,,DUNSFORD,EXETER,DEVON,EX67DD,Dunsford CP
DUNSFORD COMMUNITY PRIMARY SCHOOL-VILLAGE HALL SITE,,DUNSFORD,EXETER,DEVON,EX67DD,Dunsford CP
EAST ALLINGTON PRIMARY SCHOOL,,EAST ALLINGTON,TOTNES,DEVON,TQ97RE,East Allington CP
EXMINSTER COMMUNITY PRIMARY,,EXMINSTER,EXETER,DEVON,EX68AJ,Exminster CP
HENNOCK COMMUNITY PRIMARY SCHOOL,,HENNOCK,NEWTON ABBOT,DEVON,TQ139QB,Hennock CP
IPPLEPEN PRIMARY SCHOOL-MAIN SCHOOL SITE,BILTOR ROAD,IPPLEPEN,NEWTON ABBOT,DEVON,TQ125QG,Ipplepen CP
IPPLEPEN PRIMARY SCHOOL-IPPLEPEN MILLENNIUM CENTRE,BILTOR ROAD,IPPLEPEN,NEWTON ABBOT,DEVON,TQ125QG,Ipplepen CP
KENTON PRIMARY SCHOOL-MAIN SCHOOL SITE,MAMHEAD ROAD,KENTON,EXETER,DEVON,EX68LX,Kenton CP
KENTON PRIMARY SCHOOL-PLAYING FIELD (Formerly BIS 3011 Site for new school),MAMHEAD ROAD,KENTON,EXETER,DEVON,EX68LX,Kenton CP
KINGSBRIDGE COMMUNITY PRIMARY SCHOOL,BELLE CROSS ROAD,,KINGSBRIDGE,DEVON,TQ71NL,Kingsbridge CP
KINGSWEAR COMMUNITY PRIMARY SCHOOL-MAIN SCHOOL SITE,LOWER CONTOUR ROAD,KINGSWEAR,DARTMOUTH,DEVON,TQ60BJ,Kingswear CP
KINGSWEAR COMMUNITY PRIMARY SCHOOL-PLAYING FIELD,LOWER CONTOUR ROAD,KINGSWEAR,DARTMOUTH,DEVON,TQ60BJ,Kingswear CP
LODDISWELL PRIMARY SCHOOL-MAIN SCHOOL SITE,,LODDISWELL,KINGSBRIDGE,DEVON,TQ74QU,Loddiswell CP
LODDISWELL PRIMARY SCHOOL-PLAYING FIELD - NEW SCHOOL SITE,,LODDISWELL,KINGSBRIDGE,DEVON,TQ74QU,Loddiswell CP
MODBURY PRIMARY SCHOOL,BARRACKS ROAD,MODBURY,IVYBRIDGE,DEVON,PL210RB,Modbury CP
DECOY PRIMARY SCHOOL,DEER PARK ROAD,,NEWTON ABBOT,DEVON,TQ121DH,Newton Abbot CP
HIGHWEEK COMMUNITY PRIMARY & NURSERY SCHOOL,CORONATION ROAD,,NEWTON ABBOT,DEVON,TQ121TX,Newton Abbot CP
HAYTOR VIEW COMMUNITY PRIMARY SCHOOL-MAIN SCHOOL SITE (QUEENSWAY),QUEENSWAY,,NEWTON ABBOT,DEVON,TQ124BD,Newton Abbot CP
HAYTOR VIEW COMMUNITY PRIMARY SCHOOL-FORMER INFANT SCHOOL SITE (SANDRINGHAM),QUEENSWAY,,NEWTON ABBOT,DEVON,TQ124BD,Newton Abbot CP
SHALDON PRIMARY SCHOOL-MAIN SCHOOL SITE,BRIDGE ROAD,,SHALDON,DEVON,TQ140DD,Shaldon CP
STARCROSS PRIMARY SCHOOL-MAIN SCHOOL SITE,NEW ROAD,STARCROSS,EXETER,DEVON,EX68QD,Starcross CP
STARCROSS PRIMARY SCHOOL-PARISH FIELD,NEW ROAD,STARCROSS,EXETER,DEVON,EX68QD,Starcross CP
STOKE FLEMING COMMUNITY PRIMARY SCHOOL,,STOKE FLEMING,DARTMOUTH,DEVON,TQ60QA,Stoke Fleming CP
STOKE GABRIEL PRIMARY SCHOOL-MAIN SCHOOL SITE,SCHOOL HILL,STOKE GABRIEL,TOTNES,DEVON,TQ96ST,Stoke Gabriel CP
STOKE GABRIEL PRIMARY SCHOOL-SCHOOL HILL FIELD,SCHOOL HILL,STOKE GABRIEL,TOTNES,DEVON,TQ96ST,Stoke Gabriel CP
STOKEINTEIGNHEAD SCHOOL,SCHOOL ROAD,STOKEINTEIGNHEAD,NEWTON ABBOT,DEVON,TQ124QE,Stokeinteignhead CP
STOKENHAM AREA PRIMARY SCHOOL,,STOKENHAM,KINGSBRIDGE,DEVON,TQ72SJ,Stokenham CP
HAZELDOWN SCHOOL,MAUDLIN DRIVE,HIGHER EXETER ROAD,TEIGNMOUTH,DEVON,TQ148SE,Teignmouth CP
TEIGNMOUTH COMMUNITY SCHOOL,MILL LANE,,TEIGNMOUTH,DEVON,TQ149BB,Teignmouth CP
THE GROVE PRIMARY SCHOOL,THE GROVE,,TOTNES,DEVON,TQ95ED,Totnes CP
WIDECOMBE IN THE MOOR PRIMARY SCHOOL-MAIN SCHOOL SITE,,WIDECOMBE,NEWTON ABBOT,DEVON,TQ137TB,Widecombe in the Moor CP
WIDECOMBE IN THE MOOR PRIMARY SCHOOL-PLAYING FIELD,,WIDECOMBE,NEWTON ABBOT,DEVON,TQ137TB,Widecombe in the Moor CP
BRADLEY BARTON PRIMARY SCHOOL & NURSERY UNIT,OGWELL MILL ROAD,BRADLEY VALLEY,NEWTON ABBOT,DEVON,TQ121PR,Newton Abbot CP
BERE ALSTON PRIMARY SCHOOL,,BERE ALSTON,YELVERTON,DEVON,PL207AU,Bere Ferrers CP
BOASLEY CROSS COMMUNITY PRIMARY SCHOOL,,BRATTON CLOVELLY,OKEHAMPTON,DEVON,EX204JH,Sourton CP
BRIDESTOWE PRIMARY SCHOOL,,BRIDESTOWE,OKEHAMPTON,DEVON,EX204EL,Bridestowe CP
ERMINGTON PRIMARY SCHOOL,,ERMINGTON,IVYBRIDGE,DEVON,PL219NH,Ermington CP
GULWORTHY PRIMARY SCHOOL-MAIN SCHOOL SITE,,GULWORTHY,TAVISTOCK,DEVON,PL198JA,Gulworthy CP
GULWORTHY PRIMARY SCHOOL-PLAYING FIELD & CAR PARK,,GULWORTHY,TAVISTOCK,DEVON,PL198JA,Gulworthy CP
HATHERLEIGH COMMUNITY PRIMARY SCHOOL,SOUTH STREET,HATHERLEIGH,OKEHAMPTON,DEVON,EX203JB,Hatherleigh CP
HIGHAMPTON COMMUNITY PRIMARY SCHOOL,,HIGHAMPTON,BEAWORTHY,DEVON,EX215LE,Highampton CP
HOLBETON SCHOOL-MAIN SCHOOL SITE,,HOLBETON,PLYMOUTH,DEVON,PL81LT,Holbeton CP
HOLBETON SCHOOL-VILLAGE HALL,,HOLBETON,PLYMOUTH,DEVON,PL81LT,Holbeton CP
HOLBETON SCHOOL-BRENT HILL SPORTS FIELD,,HOLBETON,PLYMOUTH,DEVON,PL81LT,Holbeton CP
THE ERME PRIMARY SCHOOL,STATION ROAD,,IVYBRIDGE,DEVON,PL210AJ,Ivybridge CP
MANOR PRIMARY SCHOOL,MANOR WAY,,IVYBRIDGE,DEVON,PL219BG,Ivybridge CP
LIFTON COMMUNITY PRIMARY,NORTH ROAD,,LIFTON,DEVON,PL160EH,Lifton CP
LYDFORD PRIMARY SCHOOL,,LYDFORD,OKEHAMPTON,DEVON,EX204AU,Lydford CP
MILTON ABBOT SCHOOL,,MILTON ABBOT,TAVISTOCK,DEVON,PL190PS,Milton Abbot CP
NORTH TAWTON COMMUNITY PRIMARY SCHOOL,EXETER STREET,,NORTH TAWTON,DEVON,EX202HB,North Tawton CP
PRINCETOWN PRIMARY,TAVISTOCK ROAD,PRINCETOWN,YELVERTON,DEVON,PL206QE,Dartmoor Forest CP
SHAUGH PRIOR PRIMARY SCHOOL,,SHAUGH PRIOR,PLYMOUTH,DEVON,PL75HA,Shaugh Prior CP
SOUTH TAWTON PRIMARY SCHOOL-MAIN SCHOOL SITE,TAWTON LANE,SOUTH ZEAL,OKEHAMPTON,DEVON,EX202LG,South Tawton CP
SOUTH TAWTON PRIMARY SCHOOL-PARK MEADOW PLAYING FIELD,TAWTON LANE,SOUTH ZEAL,OKEHAMPTON,DEVON,EX202LG,South Tawton CP
SOUTH TAWTON PRIMARY SCHOOL-VILLAGE HALL,TAWTON LANE,SOUTH ZEAL,OKEHAMPTON,DEVON,EX202LG,South Tawton CP
MARY TAVY AND BRENTOR COMMUNITY PRIMARY SCHOOL-MAIN SCHOOL SITE,,MARY TAVY,TAVISTOCK,DEVON,PL199PR,Mary Tavy CP
MARY TAVY AND BRENTOR COMMUNITY PRIMARY SCHOOL-NEW SCHOOL SITE (BIS 2891),,MARY TAVY,TAVISTOCK,DEVON,PL199PR,Mary Tavy CP
WEMBURY PRIMARY SCHOOL,KNIGHTON ROAD,WEMBURY,PLYMOUTH,DEVON,PL90EB,Wembury CP
STOWFORD PRIMARY SCHOOL,EXETER ROAD,,IVYBRIDGE,DEVON,PL210BG,Ivybridge CP
UGBOROUGH PRIMARY SCHOOL-MAIN SCHOOL SITE,,UGBOROUGH,IVYBRIDGE,DEVON,PL210NJ,Ugborough CP
UGBOROUGH PRIMARY SCHOOL-VILLAGE HALL,,UGBOROUGH,IVYBRIDGE,DEVON,PL210NJ,Ugborough CP
BICKLEIGH ON EXE CHURCH OF ENGLAND PRIMARY SCHOOL,BELL MEADOW,BICKLEIGH,TIVERTON,DEVON,EX168RE,Bickleigh (Mid Devon) CP
BRAMPFORD SPEKE CHURCH OF ENGLAND PRIMARY SCHOOL,,BRAMPFORD SPEKE,EXETER,DEVON,EX55HE,Brampford Speke CP
BRANSCOMBE CHURCH OF ENGLAND PRIMARY SCHOOL-MAIN SCHOOL SITE,,BRANSCOMBE,SEATON,DEVON,EX123DA,Branscombe CP
BRANSCOMBE CHURCH OF ENGLAND PRIMARY SCHOOL-VILLAGE HALL,,BRANSCOMBE,SEATON,DEVON,EX123DA,Branscombe CP
BROADHEMBURY CHURCH OF ENGLAND PRIMARY-MAIN SCHOOL SITE,,BROADHEMBURY,HONITON,DEVON,EX143ND,Broadhembury CP
BROADHEMBURY CHURCH OF ENGLAND PRIMARY-WOOD LAND PLAYING FIELD,,BROADHEMBURY,HONITON,DEVON,EX143ND,Broadhembury CP
BROADHEMBURY CHURCH OF ENGLAND PRIMARY - ADJACENT PLAYING FIELD,,BROADHEMBURY,HONITON,DEVON,EX143ND,
BURLESCOMBE CHURCH OF ENGLAND PRIMARY SCHOOL-MAIN SCHOOL SITE,,BURLESCOMBE,TIVERTON,DEVON,EX167JH,Burlescombe CP
BURLESCOMBE CHURCH OF ENGLAND PRIMARY SCHOOL-PARISH GROUND BRAY CLOSE,,BURLESCOMBE,TIVERTON,DEVON,EX167JH,Burlescombe CP
ST LEONARDS C OF E PRIMARY SCHOOL,ST LEONARDS ROAD,,EXETER,DEVON,EX24NQ,Exeter
ST DAVIDS CHURCH OF ENGLAND PRIMARY SCHOOL EXETER,DINHAM ROAD,,EXETER,DEVON,EX44EE,Exeter
LITTLEHAM CHURCH OF ENGLAND PRIMARY SCHOOL,LITTLEDOWN CLOSE,LITTLEHAM,EXMOUTH,DEVON,EX82QY,Exmouth CP
WITHYCOMBE RALEIGH CHURCH OF ENGLAND PRIMARY SCHOOL,WITHYCOMBE VILLAGE ROAD,,EXMOUTH,DEVON,EX83BA,Exmouth CP
HAWKCHURCH CHURCH OF ENGLAND SCHOOL,,HAWKCHURCH,AXMINSTER,DEVON,EX135XD,Hawkchurch CP
KENTISBEARE CHURCH OF ENGLAND PRIMARY SCHOOL,FORE STREET,KENTISBEARE,CULLOMPTON,DEVON,EX152AD,Kentisbeare CP
LYMPSTONE CHURCH OF ENGLAND PRIMARY SCHOOL-MAIN SCHOOL SITE,SCHOOL HILL,LYMPSTONE,EXMOUTH,DEVON,EX85JY,Lympstone CP
LYMPSTONE CHURCH OF ENGLAND PRIMARY SCHOOL-VILLAGE HALL,SCHOOL HILL,LYMPSTONE,EXMOUTH,DEVON,EX85JY,Lympstone CP
OFFWELL CHURCH OF ENGLAND PRIMARY SCHOOL,,OFFWELL,HONITON,DEVON,EX149SA,Offwell CP
PAYHEMBURY CHURCH OF ENGLAND PRIMARY SCHOOL-MAIN SCHOOL SITE,,PAYHEMBURY,HONITON,DEVON,EX143HT,Payhembury CP
PAYHEMBURY CHURCH OF ENGLAND PRIMARY SCHOOL-PLAYING FIELD SITE,,PAYHEMBURY,HONITON,DEVON,EX143HT,Payhembury CP
PAYHEMBURY CHURCH OF ENGLAND PRIMARY SCHOOL-VILLAGE HALL SITE,,PAYHEMBURY,HONITON,DEVON,EX143HT,
PLYMTREE CHURCH OF ENGLAND PRIMARY SCHOOL-MAIN SCHOOL SITE,,PLYMTREE,CULLOMPTON,DEVON,EX152JU,Plymtree CP
PLYMTREE CHURCH OF ENGLAND PRIMARY SCHOOL-PARISH PLAYING FIELD,,PLYMTREE,CULLOMPTON,DEVON,EX152JU,Plymtree CP
SAMPFORD PEVERELL CHURCH OF ENGLAND PRIMARY SCHOOL,,SAMPFORD PEVERELL,TIVERTON,DEVON,EX167BR,Sampford Peverell CP
SIDBURY CHURCH OF ENGLAND PRIMARY SCHOOL,CHURCH STREET,SIDBURY,SIDMOUTH,DEVON,EX100SB,Sidmouth CP
SILVERTON CHURCH OF ENGLAND PRIMARY SCHOOL,COACH ROAD,SILVERTON,EXETER,DEVON,EX54JY,Silverton CP
STOCKLAND CHURCH OF ENGLAND PRIMARY SCHOOL,,STOCKLAND,HONITON,DEVON,EX149EF,Stockland CP
STOKE CANON CHURCH OF ENGLAND PRIMARY SCHOOL-MAIN SCHOOL SITE,,STOKE CANON,EXETER,DEVON,EX54AS,Stoke Canon CP
STOKE CANON CHURCH OF ENGLAND PRIMARY SCHOOL-RIVER CLOSE DETACHED PLAYING FIELD,,STOKE CANON,EXETER,DEVON,EX54AS,Stoke Canon CP
THORVERTON CHURCH OF ENGLAND PRIMARY SCHOOL,SCHOOL LANE,THORVERTON,EXETER,DEVON,EX55NR,Thorverton CP
UPLOWMAN CHURCH OF ENGLAND PRIMARY SCHOOL,VALLEY VIEW,"WESTLEIGH, UPLOWMAN",TIVERTON,DEVON,EX167DR,Uplowman CP
BERRYNARBOR CHURCH OF ENGLAND PRIMARY SCHOOL-MAIN SCHOOL SITE,,BERRYNARBOR,ILFRACOMBE,DEVON,EX349SE,Berrynarbor CP
BERRYNARBOR CHURCH OF ENGLAND PRIMARY SCHOOL-BERRYNARBOR PARISH HALL SITE,,BERRYNARBOR,ILFRACOMBE,DEVON,EX349SE,Berrynarbor CP
BERRYNARBOR CHURCH OF ENGLAND PRIMARY SCHOOL-PLAYGROUND SITE,,BERRYNARBOR,ILFRACOMBE,DEVON,EX349SE,Berrynarbor CP
BERRYNARBOR CHURCH OF ENGLAND PRIMARY SCHOOL-RECREATION FIELD,,BERRYNARBOR,ILFRACOMBE,DEVON,EX349SE,Berrynarbor CP
BLACK TORRINGTON CHURCH OF ENGLAND PRIMARY SCHOOL-MAIN SCHOOL SITE,,BLACK TORRINGTON,BEAWORTHY,DEVON,EX215PU,Black Torrington CP
BLACK TORRINGTON CHURCH OF ENGLAND PRIMARY SCHOOL-PLAYING FIELD,,BLACK TORRINGTON,BEAWORTHY,DEVON,EX215PU,Black Torrington CP
BRIDGERULE CHURCH OF ENGLAND PRIMARY SCHOOL,,BRIDGERULE,HOLSWORTHY,DEVON,EX227EN,Bridgerule CP
BURRINGTON CHURCH OF ENGLAND PRIMARY SCHOOL-MAIN SCHOOL SITE,,BURRINGTON,UMBERLEIGH,DEVON,EX379JG,Burrington CP
BURRINGTON CHURCH OF ENGLAND PRIMARY SCHOOL-PLAYING FIELD,,BURRINGTON,UMBERLEIGH,DEVON,EX379JG,Burrington CP
GEORGEHAM C of E (VC) PRIMARY SCHOOL,,GEORGEHAM,BRAUNTON,DEVON,EX331JT,Georgeham CP
GOODLEIGH CHURCH OF ENGLAND PRIMARY SCHOOL-MAIN SCHOOL SITE,,GOODLEIGH,BARNSTAPLE,DEVON,EX327NR,Goodleigh CP
GOODLEIGH CHURCH OF ENGLAND PRIMARY SCHOOL-TEMP CLASSROOM SITE,,GOODLEIGH,BARNSTAPLE,DEVON,EX327NR,Goodleigh CP
GOODLEIGH CHURCH OF ENGLAND PRIMARY SCHOOL-DETACHED PLAYING FIELD,,GOODLEIGH,BARNSTAPLE,DEVON,EX327NR,Goodleigh CP
HIGH BICKINGTON CHURCH OF ENGLAND PRIMARY SCHOOL-MAIN SCHOOL SITE,,HIGH BICKINGTON,UMBERLEIGH,DEVON,EX379AY,High Bickington CP
HIGH BICKINGTON CHURCH OF ENGLAND PRIMARY SCHOOL-PLAYING FIELD,,HIGH BICKINGTON,UMBERLEIGH,DEVON,EX379AY,High Bickington CP
HOLYWELL CHURCH OF ENGLAND PRIMARY SCHOOL-MAIN SCHOOL SITE,,TAWSTOCK,BARNSTAPLE,DEVON,EX313HZ,Tawstock CP
HOLYWELL CHURCH OF ENGLAND PRIMARY SCHOOL-LEASED PLAYING FIELD,,TAWSTOCK,BARNSTAPLE,DEVON,EX313HZ,Tawstock CP
ILFRACOMBE CHURCH OF ENGLAND JUNIOR SCHOOL,PRINCESS AVENUE,,ILFRACOMBE,DEVON,EX349LW,Ilfracombe CP
PARRACOMBE CHURCH OF ENGLAND PRIMARY SCHOOL,,PARRACOMBE,BARNSTAPLE,DEVON,EX314QJ,Parracombe CP
PYWORTHY CHURCH OF ENGLAND PRIMARY SCHOOL,,PYWORTHY,HOLSWORTHY,DEVON,EX226ST,Pyworthy CP
WITHERIDGE CHURCH OF ENGLAND PRIMARY SCHOOL,FORE STREET,WITHERIDGE,TIVERTON,DEVON,EX168AH,Witheridge CP
ST MARYS CHURCH OF ENGLAND PRIMARY SCHOOL (BIDEFORD),CHANTERS ROAD,,BIDEFORD,DEVON,EX392QN,Northam CP
ASHLEIGH C OF E (VC) PRIMARY SCHOOL,BEVAN ROAD,,BARNSTAPLE,DEVON,EX328LJ,Barnstaple CP
AVETON GIFFORD C OF E PRIMARY SCHOOL-MAIN SCHOOL SITE,FORE STREET,AVETON GIFFORD,KINGSBRIDGE,DEVON,TQ74LB,Aveton Gifford CP
BERRY POMEROY PAROCHIAL CHURCH OF ENGLAND PRIMARY SCHOOL-MAIN SCHOOL SITE,,BERRY POMEROY,TOTNES,DEVON,TQ96LH,Berry Pomeroy CP
BERRY POMEROY PAROCHIAL CHURCH OF ENGLAND PRIMARY SCHOOL-VILLAGE HALL,,BERRY POMEROY,TOTNES,DEVON,TQ96LH,Berry Pomeroy CP
BLACKPOOL CHURCH OF ENGLAND PRIMARY SCHOOL-MAIN SCHOOL SITE,,LIVERTON,NEWTON ABBOT,DEVON,TQ126JB,Ilsington CP
BLACKPOOL CHURCH OF ENGLAND PRIMARY SCHOOL-SPORTS FIELD OVER ROAD,,LIVERTON,NEWTON ABBOT,DEVON,TQ126JB,Ilsington CP
CHARLETON CHURCH OF ENGLAND PRIMARY SCHOOL-MAIN SCHOOL SITE,,WEST CHARLETON,KINGSBRIDGE,DEVON,TQ72AL,Charleton CP
CHARLETON CHURCH OF ENGLAND PRIMARY SCHOOL-PLAYING FIELD,,WEST CHARLETON,KINGSBRIDGE,DEVON,TQ72AL,Charleton CP
CHARLETON CHURCH OF ENGLAND PRIMARY SCHOOL-CROFT FARM PLAYING FIELD,,WEST CHARLETON,KINGSBRIDGE,DEVON,TQ72AL,Charleton CP
CHARLETON CHURCH OF ENGLAND PRIMARY SCHOOL-MARSH LANE PLAYING FIELD,,WEST CHARLETON,KINGSBRIDGE,DEVON,TQ72AL,
CHUDLEIGH KNIGHTON CHURCH OF ENGLAND PRIMARY SCHOOL-MAIN SCHOOL SITE,,CHUDLEIGH KNIGHTON,NEWTON ABBOT,DEVON,TQ130EU,Hennock CP
CHUDLEIGH KNIGHTON CHURCH OF ENGLAND PRIMARY SCHOOL -PLAYING FIELD OPPOSITE PLAYGROUND,,CHUDLEIGH KNIGHTON,NEWTON ABBOT,DEVON,TQ130EU,Hennock CP
DIPTFORD PAROCHIAL CHURCH OF ENGLAND PRIMARY SCHOOL-MAIN SCHOOL SITE,,DIPTFORD,TOTNES,DEVON,TQ97NY,Diptford CP
DIPTFORD PAROCHIAL CHURCH OF ENGLAND PRIMARY SCHOOL-PARISH HALL,,DIPTFORD,TOTNES,DEVON,TQ97NY,Diptford CP
ILSINGTON CHURCH OF ENGLAND PRIMARY SCHOOL-MAIN SCHOOL SITE,,ILSINGTON,NEWTON ABBOT,DEVON,TQ139RE,Ilsington CP
ILSINGTON CHURCH OF ENGLAND PRIMARY SCHOOL-PARISH FIELD,,ILSINGTON,NEWTON ABBOT,DEVON,TQ139RE,Ilsington CP
KENN CHURCH OF ENGLAND PRIMARY SCHOOL,,KENNFORD,EXETER,DEVON,EX67TX,Kenn CP
KINGSKERSWELL CHURCH OF ENGLAND VC PRIMARY SCHOOL,COFFINSWELL LANE,,KINGSKERSWELL,DEVON,TQ125HN,Kingskerswell CP
ST MICHAELS CHURCH OF ENGLAND PRIMARY SCHOOL KINGSTEIGNTON,CHURCH STREET,KINGSTEIGNTON,NEWTON ABBOT,DEVON,TQ123BQ,Kingsteignton CP
MALBOROUGH WITH SOUTH HUISH C OF E PRIMARY SCHOOL,HIGHER TOWN,MALBOROUGH,KINGSBRIDGE,DEVON,TQ73RN,Malborough CP
BEARNES VOLUNTARY PRIMARY SCHOOL-MAIN SCHOOL SITE,QUEEN STREET,,NEWTON ABBOT,DEVON,TQ122AU,Newton Abbot CP
BEARNES VOLUNTARY PRIMARY SCHOOL-ST.JOSEPHS PARISH HALL,QUEEN STREET,,NEWTON ABBOT,DEVON,TQ122AU,Newton Abbot CP
WEST ALVINGTON CHURCH OF ENGLAND PRIMARY SCHOOL-MAIN SCHOOL SITE,,WEST ALVINGTON,KINGSBRIDGE,DEVON,TQ73PP,West Alvington CP
WEST ALVINGTON CHURCH OF ENGLAND PRIMARY SCHOOL-PLAYGROUND,,WEST ALVINGTON,KINGSBRIDGE,DEVON,TQ73PP,West Alvington CP
WEST ALVINGTON CHURCH OF ENGLAND PRIMARY SCHOOL-VILLAGE HALL,,WEST ALVINGTON,KINGSBRIDGE,DEVON,TQ73PP,West Alvington CP
SALCOMBE CHURCH OF ENGLAND PRIMARY SCHOOL,ONSLOW ROAD,,SALCOMBE,DEVON,TQ88AG,Salcombe CP
TOTNES ST JOHNS CHURCH OF ENGLAND PRIMARY SCHOOL,PATHFIELDS,BRIDGETOWN,TOTNES,DEVON,TQ95TZ,Totnes CP
CHAGFORD CHURCH OF ENGLAND PRIMARY SCHOOL,,CHAGFORD,NEWTON ABBOT,DEVON,TQ138BZ,Chagford CP
CORNWOOD CHURCH OF ENGLAND PRIMARY SCHOOL,SCHOOL LANE,CORNWOOD,IVYBRIDGE,DEVON,PL219PZ,Cornwood CP
EXBOURNE CHURCH OF ENGLAND PRIMARY SCHOOL-MAIN SCHOOL SITE,,EXBOURNE,OKEHAMPTON,DEVON,EX203SQ,Exbourne CP
EXBOURNE CHURCH OF ENGLAND PRIMARY SCHOOL-PLAYING FIELD,,EXBOURNE,OKEHAMPTON,DEVON,EX203SQ,Exbourne CP
LAMERTON CHURCH OF ENGLAND (VC) PRIMARY SCHOOL-MAIN SCHOOL SITE,,LAMERTON,TAVISTOCK,DEVON,PL198RJ,Lamerton CP
LAMERTON CHURCH OF ENGLAND (VC) PRIMARY SCHOOL - VILLAGE HALL,,LAMERTON,TAVISTOCK,DEVON,PL198RJ,Lamerton CP
LEW TRENCHARD CHURCH OF ENGLAND PRIMARY SCHOOL,,LEWDOWN,OKEHAMPTON,DEVON,EX204DP,Lewtrenchard CP
NORTHLEW AND ASHBURY PAROCHIAL CHURCH OF ENGLAND PRIMARY SCHOOL,,NORTHLEW,OKEHAMPTON,DEVON,EX203PB,Northlew CP
ST RUMONS CHURCH OF ENGLAND INFANTS SCHOOL TAVISTOCK,DOLVIN ROAD,,TAVISTOCK,DEVON,PL199EA,Tavistock CP
AWLISCOMBE CHURCH OF ENGLAND PRIMARY SCHOOL-MAIN SCHOOL SITE,,AWLISCOMBE,HONITON,DEVON,EX143PJ,Awliscombe CP
AWLISCOMBE CHURCH OF ENGLAND PRIMARY SCHOOL-CHURCH HILL PLAYING FIELD,,AWLISCOMBE,HONITON,DEVON,EX143PJ,Awliscombe CP
ST MARYS CATHOLIC PRIMARY SCHOOL AXMINSTER,LYME ROAD,,AXMINSTER,DEVON,EX135BE,Axminster CP
BEER CHURCH OF ENGLAND PRIMARY SCHOOL,MARE LANE,BEER,SEATON,DEVON,EX123NB,Beer CP
ST PETERS CHURCH OF ENGLAND PRIMARY SCHOOL BUDLEIGH SALTERTON,MOOR LANE,,BUDLEIGH SALTERTON,DEVON,EX96QF,Budleigh Salterton CP
ALL SAINTS CHURCH OF ENGLAND PRIMARY SCHOOL-MAIN SCHOOL SITE,,SMALLRIDGE,AXMINSTER,DEVON,EX137LX,All Saints CP
ALL SAINTS CHURCH OF ENGLAND PRIMARY SCHOOL-VILLAGE HALL,,SMALLRIDGE,AXMINSTER,DEVON,EX137LX,All Saints CP
LADY SEAWARDS C OF E PRIMARY SCHOOL CLYST ST GEORGE-MAIN SCHOOL SITE,,CLYST ST GEORGE,EXETER,DEVON,EX30RE,Clyst St. George CP
DRAKES CHURCH OF ENGLAND PRIMARY SCHOOL EAST BUDLEIGH-MAIN SCHOOL SITE,,EAST BUDLEIGH,BUDLEIGH SALTERTON,DEVON,EX97DQ,East Budleigh CP
DRAKES CHURCH OF ENGLAND PRIMARY SCHOOL EAST BUDLEIGH-RECREATION GROUND,,EAST BUDLEIGH,BUDLEIGH SALTERTON,DEVON,EX97DQ,East Budleigh CP
THE BEACON CHURCH OF ENGLAND VOLUNTARY AIDED PRIMARY SCHOOL,BEACON PLACE,,EXMOUTH,DEVON,EX82SR,Exmouth CP
ST JOSEPHS CATHOLIC PRIMARY SCHOOL EXMOUTH,REGENTS GATE,LONG CAUSEWAY,EXMOUTH,DEVON,EX82JP,Exmouth CP
FARWAY CHURCH OF ENGLAND PRIMARY SCHOOL,,FARWAY,COLYTON,DEVON,EX246EQ,Farway CP
FENITON CHURCH OF ENGLAND PRIMARY SCHOOL,STATION ROAD,FENITON,HONITON,DEVON,EX143EA,Feniton CP
WEBBERS CHURCH OF ENGLAND PRIMARY SCHOOL,,HOLCOMBE ROGUS,WELLINGTON,SOMERSET,TA210PE,Holcombe Rogus CP
MORCHARD BISHOP CHURCH OF ENGLAND PRIMARY SCHOOL,CHURCH STREET,MORCHARD BISHOP,CREDITON,DEVON,EX176PJ,Morchard Bishop CP
OTTERTON CHURCH OF ENGLAND PRIMARY SCHOOL-MAIN SCHOOL SITE,,OTTERTON,BUDLEIGH SALTERTON,DEVON,EX97HU,Otterton CP
OTTERTON CHURCH OF ENGLAND PRIMARY SCHOOL-FIELD AT OTTERTON BRIDGE,,OTTERTON,BUDLEIGH SALTERTON,DEVON,EX97HU,Bicton CP
ROCKBEARE CHURCH OF ENGLAND PRIMARY SCHOOL,,ROCKBEARE,EXETER,DEVON,EX52EQ,Rockbeare CP
SIDMOUTH PRIMARY SCHOOL - WOOLBROOK ROAD SITE,WOOLBROOK ROAD,,SIDMOUTH,DEVON,EX109XB,Sidmouth CP
SIDMOUTH PRIMARY SCHOOL - MANSTONE ROAD SITE,MANSTONE AVENUE,,SIDMOUTH,DEVON,EX109TJ,Sidmouth CP
SIDMOUTH PRIMARY SCHOOL - VICARAGE ROAD SITE,VICARAGE ROAD,,SIDMOUTH,DEVON,EX108UG,Sidmouth CP
TIPTON ST JOHN CHURCH OF ENGLAND PRIMARY SCHOOL-MAIN SCHOOL SITE,,TIPTON ST JOHN,SIDMOUTH,DEVON,EX100AG,Ottery St. Mary CP
TIPTON ST JOHN CHURCH OF ENGLAND PRIMARY SCHOOL-PLAYGROUND SITE,,TIPTON ST JOHN,SIDMOUTH,DEVON,EX100AG,Ottery St. Mary CP
TIPTON ST JOHN CHURCH OF ENGLAND PRIMARY SCHOOL-TIPTON ST JOHN PLAYING FIELD,,TIPTON ST JOHN,SIDMOUTH,DEVON,EX100AG,Ottery St. Mary CP
TIPTON ST JOHN CHURCH OF ENGLAND PRIMARY SCHOOL-VILLAGE HALL,,TIPTON ST JOHN,SIDMOUTH,DEVON,EX100AG,Ottery St. Mary CP
MRS ETHELSTONS CHURCH OF ENGLAND PRIMARY SCHOOL,POUND LANE,UPLYME,LYME REGIS,DORSET,DT73TT,Uplyme CP
WOODBURY CHURCH OF ENGLAND PRIMARY SCHOOL,,WOODBURY,EXETER,DEVON,EX51NB,Woodbury CP
WOODBURY SALTERTON CHURCH OF ENGLAND PRIMARY SCHOOL-MAIN SCHOOL SITE,STONY LANE,,WOODBURY SALTERTON,DEVON,EX51PP,Woodbury CP
WOODBURY SALTERTON CHURCH OF ENGLAND PRIMARY SCHOOL-PLAYING FIELD,STONY LANE,,WOODBURY SALTERTON,DEVON,EX51PP,Woodbury CP
WOODBURY SALTERTON CHURCH OF ENGLAND PRIMARY SCHOOL-STONY LANE PLAYING FIELD (Site for pool),STONY LANE,,WOODBURY SALTERTON,DEVON,EX51PP,Woodbury CP
ST JOHNS CATHOLIC PRIMARY SCHOOL TIVERTON,MELBOURNE STREET,,TIVERTON,DEVON,EX165LA,Tiverton CP
PILTON THE BLUECOAT CHURCH OF ENGLAND JUNIOR SCHOOL,ABBEY ROAD,,BARNSTAPLE,DEVON,EX311JU,Barnstaple CP
OUR LADYS CATHOLIC PRIMARY SCHOOL BARNSTAPLE,CHANTERS HILL,,BARNSTAPLE,DEVON,EX328DN,Barnstaple CP
CHITTLEHAMPTON CHURCH OF ENGLAND PRIMARY SCHOOL-MAIN SCHOOL SITE,,CHITTLEHAMPTON,UMBERLEIGH,DEVON,EX379QW,Chittlehampton CP
CHITTLEHAMPTON CHURCH OF ENGLAND PRIMARY SCHOOL-PARISH GROUNDS,,CHITTLEHAMPTON,UMBERLEIGH,DEVON,EX379QW,Chittlehampton CP
DOLTON CHURCH OF ENGLAND PRIMARY SCHOOL-MAIN SCHOOL SITE,THE SQUARE,DOLTON,WINKLEIGH,DEVON,EX198QF,Dolton CP
DOLTON CHURCH OF ENGLAND PRIMARY SCHOOL-CLEAVE HILL PLAYING FIELD,THE SQUARE,DOLTON,WINKLEIGH,DEVON,EX198QF,Dolton CP
LYNTON CHURCH OF ENGLAND PRIMARY SCHOOL,MARKET STREET,,LYNTON,DEVON,EX356AF,Lynton and Lynmouth CP
THE CLINTON CHURCH OF ENGLAND PRIMARY SCHOOL MERTON,,MERTON,OKEHAMPTON,DEVON,EX203EQ,Merton CP
ST MARGARETS CHURCH OF ENGLAND (AIDED) JUNIOR SCHOOL-MAIN SCHOOL SITE,"SEAVIEW ROAD, MORWENNA PARK",NORTHAM,BIDEFORD,DEVON,EX391EL,Northam CP
ST MARGARETS CHURCH OF ENGLAND (AIDED) JUNIOR SCHOOL-JACKETS LAND FIELDS,"SEAVIEW ROAD, MORWENNA PARK",NORTHAM,BIDEFORD,DEVON,EX391EL,Northam CP
ST MARGARETS CHURCH OF ENGLAND (AIDED) JUNIOR SCHOOL-SANDYMERE ROAD FIELD,"SEAVIEW ROAD, MORWENNA PARK",NORTHAM,BIDEFORD,DEVON,EX391EL,Northam CP
RACKENFORD CHURCH OF ENGLAND PRIMARY SCHOOL-MAIN SCHOOL SITE,,RACKENFORD,TIVERTON,DEVON,EX168DU,Rackenford CP
RACKENFORD CHURCH OF ENGLAND PRIMARY SCHOOL-HARD PLAY AREA,,RACKENFORD,TIVERTON,DEVON,EX168DU,Rackenford CP
SOUTH MOLTON UNITED CHURCH OF ENGLAND JUNIOR SCHOOL,NORTH ROAD,,SOUTH MOLTON,DEVON,EX363GN,South Molton CP
SWIMBRIDGE CHURCH OF ENGLAND PRIMARY SCHOOL-MAIN SCHOOL SITE,BARNSTAPLE HILL,SWIMBRIDGE,BARNSTAPLE,DEVON,EX320PJ,Swimbridge CP
SWIMBRIDGE CHURCH OF ENGLAND PRIMARY SCHOOL-PLAYING FIELD,BARNSTAPLE HILL,SWIMBRIDGE,BARNSTAPLE,DEVON,EX32OPJ,Swimbridge CP
NORTHAM ST GEORGES C of E VA INFANT & NURSERY SCHOOL,JACKETS LANE,NORTHAM,BIDEFORD,DEVON,EX391HT,Northam CP
ST MARYS CATHOLIC PRIMARY SCHOOL BUCKFAST,BUCKFAST ROAD,,BUCKFASTLEIGH,DEVON,TQ110EA,Buckfastleigh CP
ST JOHN THE BAPTIST ROMAN CATHOLIC PRIMARY SCHOOL DARTMOUTH-MAIN SCHOOL SITE,MILTON LANE,,DARTMOUTH,DEVON,TQ69HW,Dartmouth CP
ST JOHN THE BAPTIST ROMAN CATHOLIC PRIMARY SCHOOL DARTMOUTH-ELECTRICITY SUB STATION SITE,MILTON LANE,,DARTMOUTH,DEVON,TQ69HW,Dartmouth CP
HARBERTONFORD C OF E PRIMARY SCHOOL,OLD ROAD,HARBERTONFORD,TOTNES,DEVON,TQ97TA,Harberton CP
LANDSCOVE C OF E PRIMARY SCHOOL-MAIN SCHOOL SITE,LANDSCOVE,ASHBURTON,NEWTON ABBOT,DEVON,TQ137LY,Staverton CP
LANDSCOVE C OF E PRIMARY SCHOOL-PLAYING FIELD,LANDSCOVE,ASHBURTON,NEWTON ABBOT,DEVON,TQ137LY,Staverton CP
MARLDON C OF E PRIMARY SCHOOL,MARLDON CROSS HILL,MARLDON,PAIGNTON,DEVON,TQ31PD,Marldon CP
ALL SAINTS CHURCH OF ENGLAND PRIMARY SCHOOL (MARSH)-MAIN SCHOOL SITE,OSBORNE STREET,,NEWTON ABBOT,DEVON,TQ122DJ,Newton Abbot CP
ALL SAINTS CHURCH OF ENGLAND PRIMARY SCHOOL (MARSH)-OSBORNE PARK MUGA SITE,OSBORNE STREET,,NEWTON ABBOT,DEVON,TQ122DJ,Newton Abbot CP
ST JOSEPHS CATHOLIC PRIMARY SCHOOL NEWTON ABBOT,COOMBESHEAD ROAD,HIGHWEEK,NEWTON ABBOT,DEVON,TQ121PT,Newton Abbot CP
OUR LADY & ST PATRICKS ROMAN CATHOLIC PRIMARY SCHOOL,FOURTH AVENUE,,TEIGNMOUTH,DEVON,TQ149DT,Teignmouth CP
THURLESTONE ALL SAINTS CHURCH OF ENGLAND PRIMARY SCHOOL,,THURLESTONE,KINGSBRIDGE,DEVON,TQ73NB,Thurlestone CP
WOLBOROUGH CHURCH OF ENGLAND PRIMARY SCHOOL,UNION STREET,,NEWTON ABBOT,DEVON,TQ122JU,Newton Abbot CP
ST ANDREWS CHURCH OF ENGLAND PRIMARY SCHOOL-MAIN SCHOOL SITE,,BUCKLAND MONACHORUM,YELVERTON,DEVON,PL207NA,Buckland Monachorum CP
MEAVY CHURCH OF ENGLAND PRIMARY SCHOOL,,MEAVY,YELVERTON,DEVON,PL206PJ,Meavy CP
LADY MODIFORDS CHURCH OF ENGLAND (VA) PRIMARY SCHOOL-MAIN SCHOOL SITE,,WALKHAMPTON,YELVERTON,DEVON,PL206JR,Walkhampton CP
LADY MODIFORDS CHURCH OF ENGLAND (VA) PRIMARY SCHOOL-PARISH FIELD,,WALKHAMPTON,YELVERTON,DEVON,PL206JR,Walkhampton CP
ST PETERS CHURCH OF ENGLAND VA JUNIOR SCHOOL TAVISTOCK,SCHOOL CLOSE,GREENLANDS,TAVISTOCK,DEVON,PL199HW,Tavistock CP
THE AXE VALLEY COMMUNITY COLLEGE,CHARD STREET,,AXMINSTER,DEVON,EX135EA,Axminster CP
COLYTON GRAMMAR SCHOOL-MAIN SCHOOL SITE,WHITWELL LANE,COLYFORD,COLYTON,DEVON,EX246HN,Colyton CP
COLYTON GRAMMAR SCHOOL-DETACHED FIELD,WHITWELL LANE,COLYFORD,COLYTON,DEVON,EX246HN,Colyton CP
QUEEN ELIZABETHS COMMUNITY TECHNOLOGY COLLEGE-LOWER SCHOOL,WESTERN ROAD,,CREDITON,DEVON,EX173LU,Crediton CP
QUEEN ELIZABETHS COMMUNITY TECHNOLOGY COLLEGE-UPPER SCHOOL,WESTERN ROAD,,CREDITON,DEVON,EX173LU,Crediton CP
QUEEN ELIZABETHS COMMUNITY TECHNOLOGY COLLEGE-EXHIBITION ROAD FIELDS,WESTERN ROAD,,CREDITON,DEVON,EX173LU,Crediton CP
QUEEN ELIZABETHS COMMUNITY TECHNOLOGY COLLEGE-FORCHES FIELDS,WESTERN ROAD,,CREDITON,DEVON,EX173LU,Crediton CP
QUEEN ELIZABETHS COMMUNITY TECHNOLOGY COLLEGE-ALEXANDRA ROAD PLAYING FIELDS,WESTERN ROAD,,CREDITON,DEVON,EX173LU,Crediton CP
HONITON COMMUNITY COLLEGE,SCHOOL LANE,,HONITON,DEVON,EX141QT,Honiton CP
THE KINGS SCHOOL-EAST SITE,BARRACK ROAD,,OTTERY ST MARY,DEVON,EX111RA,Ottery St. Mary CP
THE KINGS SCHOOL-WEST SITE (THORNE FARM),BARRACK ROAD,,OTTERY ST MARY,DEVON,EX111RA,Ottery St. Mary CP
THE KINGS SCHOOL-PLAYING FIELD,BARRACK ROAD,,OTTERY ST MARY,DEVON,EX111RA,Ottery St. Mary CP
UFFCULME SCHOOL-MAIN SCHOOL SITE,CHAPEL HILL,UFFCULME,CULLOMPTON,DEVON,EX153AG,
UFFCULME SCHOOL-DETACHED PLAYING FIELD,CHAPEL HILL,UFFCULME,CULLOMPTON,DEVON,EX153AG,
TIVERTON HIGH-MAIN SCHOOL SITE,BOLHAM ROAD,,TIVERTON,DEVON,EX166SQ,Tiverton CP
TIVERTON HIGH-BOLHAM ROAD PLAYING FIELD,BOLHAM ROAD,,TIVERTON,DEVON,EX166SQ,Tiverton CP
CLYST VALE COMMUNITY COLLEGE,STATION ROAD,BROADCLYST,EXETER,DEVON,EX53AJ,Broad Clyst CP
CULLOMPTON COMMUNITY COLLEGE-MAIN SCHOOL SITE,EXETER ROAD,,CULLOMPTON,DEVON,EX151DX,Cullompton CP
CULLOMPTON COMMUNITY COLLEGE-MEADOW LANE PLAYING FIELD,EXETER ROAD,,CULLOMPTON,DEVON,EX151DX,Cullompton CP
CULLOMPTON COMMUNITY COLLEGE-CULM VALLEY SPORTS CENTRE,MEADOW LANE,,CULLOMPTON,DEVON,EX151LL,Cullompton CP
SIDMOUTH COLLEGE,PRIMLEY ROAD,,SIDMOUTH,DEVON,EX109LG,Sidmouth CP
EXMOUTH COMMUNITY COLLEGE-LOWER SCHOOL (GREEN CLOSE),GIPSY LANE,,EXMOUTH,DEVON,EX83AF,Exmouth CP
EXMOUTH COMMUNITY COLLEGE-UPPER SCHOOL (GYPSY LANE),GIPSY LANE,,EXMOUTH,DEVON,EX83AF,Exmouth CP
THE CASTLE PRIMARY SCHOOL,BARRINGTON STREET,,TIVERTON,DEVON,EX166QR,Tiverton CP
WILCOMBE PRIMARY SCHOOL,LAZENBY ROAD,WILCOMBE,TIVERTON,DEVON,EX164AL,Tiverton CP
TWO MOORS PRIMARY SCHOOL,COWLEYMOOR ROAD,,TIVERTON,DEVON,EX166HH,Tiverton CP
BRAUNTON ACADEMY-MAIN SCHOOL SITE,BARTON LANE,,BRAUNTON,DEVON,EX332BP,Braunton CP
BRAUNTON ACADEMY-UPPER PLAYING FIELD WRAFTON ROAD,BARTON LANE,,BRAUNTON,DEVON,EX332BP,Braunton CP
BRAUNTON ACADEMY-LOWER PLAYING FIELD TWEEDIES,BARTON LANE,,BRAUNTON,DEVON,EX332BP,
BRAUNTON ACADEMY-UPPER TENNIS COURTS WRAFTON ROAD,BARTON LANE,,BRAUNTON,DEVON,EX332BP,Braunton CP
BRAUNTON ACADEMY-ATHLETIC TRACK,BARTON LANE,,BRAUNTON,DEVON,EX332BP,
THE COMMUNITY COLLEGE CHULMLEIGH-MAIN SCHOOL SITE,THREE CROSSWAYS,,CHULMLEIGH,DEVON,EX187AA,Chulmleigh CP
THE COMMUNITY COLLEGE CHULMLEIGH-FOURWAYS FIELD & TENNIS COURTS (BACK LANE),THREE CROSSWAYS,,CHULMLEIGH,DEVON,EX187AA,Chulmleigh CP
THE COMMUNITY COLLEGE CHULMLEIGH-ADJACENT ATHLETIC PLAYING FIELD,THREE CROSSWAYS,,CHULMLEIGH,DEVON,EX187AA,Chulmleigh CP
THE COMMUNITY COLLEGE CHULMLEIGH-LANGLEY LANE GROUNDS,THREE CROSSWAYS,,CHULMLEIGH,DEVON,EX187AA,Chulmleigh CP
GREAT TORRINGTON COMMUNITY SCHOOL SPORTS COLLEGE-MAIN SCHOOL SITE,CALVESFORD ROAD,,TORRINGTON,DEVON,EX387DJ,
GREAT TORRINGTON COMMUNITY SCHOOL SPORTS COLLEGE-HATCHMOOR ROAD PLAYING FIELD,CALVESFORD ROAD,,TORRINGTON,DEVON,EX387DJ,
HOLSWORTHY COMMUNITY COLLEGE-MAIN SCHOOL SITE,VICTORIA HILL,,HOLSWORTHY,DEVON,EX226JD,Holsworthy CP
HOLSWORTHY COMMUNITY COLLEGE-PINS PARK PLAYING FIELDS,VICTORIA HILL,,HOLSWORTHY,DEVON,EX226JD,Holsworthy CP
HOLSWORTHY COMMUNITY COLLEGE-CAR PARK WEST OF HOLSWORTHY SPORTS CENTRE,VICTORIA HILL,,HOLSWORTHY,DEVON,EX226JD,Holsworthy CP
HOLSWORTHY COMMUNITY COLLEGE-CAR PARK SOUTH OF HOLSWORTHY SPORTS CENTRE,VICTORIA HILL,,HOLSWORTHY,DEVON,EX226JD,Holsworthy CP
HOLSWORTHY COMMUNITY COLLEGE-HOLSWORTHY LEISURE CENTRE,VICTORIA HILL,,HOLSWORTHY,DEVON,EX226JD,Holsworthy CP
SOUTH MOLTON COMMUNITY COLLEGE-MAIN SCHOOL SITE,OLD ALSWEAR ROAD,,SOUTH MOLTON,DEVON,EX364LA,South Molton CP
SOUTH MOLTON COMMUNITY COLLEGE-DETACHED PLAYING FIELD,OLD ALSWEAR ROAD,,SOUTH MOLTON,DEVON,EX364LA,South Molton CP
ILFRACOMBE ACADEMY-MAIN SITE,WORTH ROAD,,ILFRACOMBE,DEVON,EX349JB,Ilfracombe CP
ILFRACOMBE ACADEMY-KILLICLEAVE PLAYING FIELDS,WORTH ROAD,,ILFRACOMBE,DEVON,EX349JB,Ilfracombe CP
THE PARK SCHOOL,PARK LANE,,BARNSTAPLE,DEVON,EX329AX,Barnstaple CP
PILTON COMMUNITY COLLEGE,CHADDIFORD LANE,,BARNSTAPLE,DEVON,EX311RB,Barnstaple CP
DARTMOUTH ACADEMY-MAIN SCHOOL SITE,MILTON LANE,,DARTMOUTH,DEVON,TQ69HW,Dartmouth CP
DARTMOUTH ACADEMY-DISTRICT COUNCIL SWIMMING POOL,MILTON LANE,,DARTMOUTH,DEVON,TQ69HW,Dartmouth CP
DAWLISH COMMUNITY COLLEGE-MAIN SCHOOL SITE,ELM GROVE ROAD,,DAWLISH,DEVON,EX70BY,Dawlish CP
DAWLISH COMMUNITY COLLEGE-T.D.C. PLAYING FIELDS,ELM GROVE ROAD,,DAWLISH,DEVON,EX70BY,Dawlish CP
DAWLISH COMMUNITY COLLEGE-T.D.C. ASTRO TURF PITCH,ELM GROVE ROAD,,DAWLISH,DEVON,EX70BY,Dawlish CP
DAWLISH COMMUNITY COLLEGE-DAWLISH LEISURE CENTRE,ELM GROVE ROAD,,DAWLISH,DEVON,EX70BY,Dawlish CP
TEIGN SCHOOL-MAIN SCHOOL SITE,CHUDLEIGH ROAD,,KINGSTEIGNTON,DEVON,TQ123JG,Kingsteignton CP
TEIGN SCHOOL-ABBROOK PLAYING FIELD,CHUDLEIGH ROAD,,KINGSTEIGNTON,DEVON,TQ123JG,Kingsteignton CP
TEIGN SCHOOL-FIVE LANES FIELD,CHUDLEIGH ROAD,,KINGSTEIGNTON,DEVON,TQ123JG,Kingsteignton CP
SOUTH DARTMOOR COMMUNITY COLLEGE-MAIN SCHOOL SITE,BALLAND LANE,,ASHBURTON,DEVON,TQ137EW,Ashburton CP
SOUTH DARTMOOR COMMUNITY COLLEGE-PLACE HOUSE SIXTH FORM SITE,BALLAND LANE,,ASHBURTON,DEVON,TQ137EW,Ashburton CP
SOUTH DARTMOOR COMMUNITY COLLEGE-CRICKET GROUND PLAYING FIELDS,BALLAND LANE,,ASHBURTON,DEVON,TQ137EW,Ashburton CP
KING EDWARD VI COMMUNITY COLLEGE-UPPER SCHOOL & KENNICOTT HOUSE,ASHBURTON ROAD,,TOTNES,DEVON,TQ95JX,Totnes CP
KING EDWARD VI COMMUNITY COLLEGE-LOWER SCHOOL,ASHBURTON ROAD,,TOTNES,DEVON,TQ95JX,Totnes CP
KINGSBRIDGE COMMUNITY COLLEGE-UPPER SCHOOL SITE WESTVILLE,BALKWILL ROAD,,KINGSBRIDGE,DEVON,TQ71PL,Kingsbridge CP
KINGSBRIDGE COMMUNITY COLLEGE-BELLE HILL PLAYING FIELD,BALKWILL ROAD,,KINGSBRIDGE,DEVON,TQ71PL,Kingsbridge CP
KINGSBRIDGE COMMUNITY COLLEGE-LAND FOR SPORTS FIELD WEST ALVINGTON HILL,BALKWILL ROAD,,KINGSBRIDGE,DEVON,TQ71PL,West Alvington CP
NEWTON ABBOT COLLEGE-MAIN OLD EXETER ROAD UPPER SITE,OLD EXETER ROAD,,NEWTON ABBOT,DEVON,TQ122NF,Newton Abbot CP
NEWTON ABBOT COLLEGE-EXETER ROAD LOWER SCHOOL SITE (PART OF DYRONS),OLD EXETER ROAD,,NEWTON ABBOT,DEVON,TQ122NF,Newton Abbot CP
NEWTON ABBOT COLLEGE-FORCHES CROSS PLAYING FIELDS,OLD EXETER ROAD,,NEWTON ABBOT,DEVON,TQ122NF,Teigngrace CP
NEWTON ABBOT COLLEGE-NEWTON ABBOT LEISURE CENTRE ACCOMODATION,OLD EXETER ROAD,,NEWTON ABBOT,DEVON,TQ122NF,Newton Abbot CP
COOMBESHEAD COLLEGE-UPPER SCHOOL SITE COOMBESHEAD ROAD,COOMBESHEAD ROAD,,NEWTON ABBOT,DEVON,TQ121PT,Newton Abbot CP
COOMBESHEAD COLLEGE-FORCHESS CROSS PLAYING FIELD,COOMBESHEAD ROAD,,NEWTON ABBOT,DEVON,TQ121PT,Newton Abbot CP
COOMBESHEAD COLLEGE-COLLEGE HOUSE SIXTH FORM CENTRE,COOMBESHEAD ROAD,,NEWTON ABBOT,DEVON,TQ121PT,Newton Abbot CP
TEIGNMOUTH COMMUNITY COLLEGE-MAIN SCHOOL AND WEST LAWN SITE,EXETER ROAD,,TEIGNMOUTH,DEVON,TQ149HZ,Teignmouth CP
TEIGNMOUTH COMMUNITY COLLEGE-RESERVOIR SPORTS FIELD SITE,EXETER ROAD,,TEIGNMOUTH,DEVON,TQ149HZ,Teignmouth CP
TAVISTOCK COLLEGE,CROWNDALE ROAD,,TAVISTOCK,DEVON,PL198DD,Tavistock CP
OKEHAMPTON COLLEGE,MILL ROAD,,OKEHAMPTON,DEVON,EX201PW,Okehampton CP
IVYBRIDGE COMMUNITY COLLEGE-MAIN SCHOOL SITE,HARFORD ROAD,,IVYBRIDGE,DEVON,PL210JA,Ivybridge CP
IVYBRIDGE COMMUNITY COLLEGE-COACH PARK,HARFORD ROAD,,IVYBRIDGE,DEVON,PL210JA,Ivybridge CP
IVYBRIDGE COMMUNITY COLLEGE-FILHAM PLAYING FIELD,HARFORD ROAD,,IVYBRIDGE,DEVON,PL210JA,Ivybridge CP
IVYBRIDGE COMMUNITY COLLEGE-GREENDOWN FARM CAMPING FIELD,HARFORD ROAD,,IVYBRIDGE,DEVON,PL210JA,
BICKLEIGH DOWN CHURCH OF ENGLAND PRIMARY SCHOOL,SCHOOL DRIVE,WOOLWELL,PLYMOUTH,DEVON,PL67JW,Bickleigh (South Hams) CP
NEWPORT COMMUNITY SCHOOL BARNSTAPLE,LANDKEY ROAD,NEWPORT,BARNSTAPLE,DEVON,EX329BW,Barnstaple CP
ALPHINGTON PRIMARY SCHOOL,WHEATSHEAF WAY,ALPHINGTON,EXETER,DEVON,EX28RQ,Exeter
RYDON PRIMARY SCHOOL,RYDON ROAD,KINGSTEIGNTON,NEWTON ABBOT,DEVON,TQ123LP,Kingsteignton CP
COUNTESS WEAR COMMUNITY SCHOOL,GLASSHOUSE LANE,,EXETER,DEVON,EX27BS,Exeter
CHULMLEIGH PRIMARY,BEACON ROAD,,CHULMLEIGH,DEVON,EX187AA,Chulmleigh CP
ST MARYS CHURCH OF ENGLAND PRIMARY SCHOOL BRIXTON,ELLIOTS HILL,BRIXTON,PLYMOUTH,DEVON,PL82AG,Brixton CP
CHUDLEIGH CHURCH OF ENGLAND COMMUNITY PRIMARY SCHOOL-MAIN SCHOOL SITE,LAWN DRIVE,CHUDLEIGH,NEWTON ABBOT,DEVON,TQ130LS,Chudleigh CP
CHUDLEIGH CHURCH OF ENGLAND COMMUNITY PRIMARY SCHOOL-PLAYGROUND,LAWN DRIVE,CHUDLEIGH,NEWTON ABBOT,DEVON,TQ130LS,Chudleigh CP
THE DUCHY SCHOOL BRADNINCH,BOWLEY MEADOW,BRADNINCH,EXETER,DEVON,EX54RF,Bradninch CP
OKEHAMPTON PRIMARY SCHOOL AND FOUNDATION UNIT,GLENDALE ROAD,,OKEHAMPTON,DEVON,EX201JB,Okehampton CP
THE TOPSHAM PRIMARY SCHOOL,ORCHARD WAY,TOPSHAM,EXETER,DEVON,EX30DN,Exeter
CANADA HILL COMMUNITY PRIMARY SCHOOL,ABBOTSRIDGE DRIVE,EAST OGWELL,NEWTON ABBOT,DEVON,TQ126YS,Ogwell CP
WEST HILL PRIMARY SCHOOL,BEECH PARK,WEST HILL,OTTERY ST MARY,DEVON,EX111UQ,Ottery St. Mary CP
NORTH MOLTON SCHOOL,FORE STREET,NORTH MOLTON,SOUTH MOLTON,DEVON,EX363HL,North Molton CP
SOUTH MOLTON COMMUNITY INFANTS SCHOOL,NORTH ROAD,,SOUTH MOLTON,DEVON,EX363BA,South Molton CP
GATEHOUSE PRIMARY SCHOOL,SECMATON LANE,GATEHOUSE FARM,DAWLISH,DEVON,EX70LW,Dawlish CP
HOLSWORTHY CHURCH OF ENGLAND PRIMARY SCHOOL-MAIN SCHOOL SITE,SANDERS LANE,,HOLSWORTHY,DEVON,EX226HD,Holsworthy CP
HOLSWORTHY CHURCH OF ENGLAND PRIMARY SCHOOL-GREAT OAK MEADOW,SANDERS LANE,,HOLSWORTHY,DEVON,EX226HD,Holsworthy CP
ORCHARD VALE COMMUNITY SCHOOL-MAIN SCHOOL SITE,WESTACOTT ROAD,WHIDDON VALLEY ESTATE,BARNSTAPLE,DEVON,EX328QY,Barnstaple CP
WOODLANDS PARK PRIMARY SCHOOL,ABBOT ROAD,CORNWOOD ROAD,IVYBRIDGE,DEVON,PL219TF,Ivybridge CP
YEALMPTON PRIMARY SCHOOL,STRAY PARK,YEALMPTON,PLYMOUTH,DEVON,PL82HF,Yealmpton CP
HORRABRIDGE COMMUNITY PRIMARY SCHOOL,WALKHAMPTON ROAD,HORRABRIDGE,YELVERTON,DEVON,PL207SZ,Horrabridge CP
WHITCHURCH COMMUNITY PRIMARY SCHOOL,WHITCHURCH ROAD,WHITCHURCH,TAVISTOCK,DEVON,PL199SR,Tavistock CP
TAVISTOCK COMMUNITY PRIMARY SCHOOL,PLYMOUTH ROAD,,TAVISTOCK,DEVON,PL198BX,Tavistock CP
WEST EXE TECHNOLOGY COLLEGE,HATHERLEIGH ROAD,,EXETER,DEVON,EX29JU,Exeter
NEWTON FERRERS CHURCH OF ENGLAND PRIMARY,"DILLONS, THE GREEN",NEWTON FERRERS,PLYMOUTH,DEVON,PL81AS,Newton and Noss CP
BOW COMMUNITY PRIMARY SCHOOL,STATION ROAD,BOW,CREDITON,DEVON,EX176HU,Bow CP
ST CATHERINES C OF E PRIMARY & NURSERY SCHOOL-BROWHILL RIDGE PLANTATION,MUSKET ROAD,HEATHFIELD,NEWTON ABBOT,DEVON,TQ126SB,Bovey Tracey CP
ST CATHERINES C OF E PRIMARY & NURSERY SCHOOL-PLAYING FIELD AT OLD SCHOOL SITE,MUSKET ROAD,HEATHFIELD,NEWTON ABBOT,DEVON,TQ126SB,Bovey Tracey CP
LANDKEY PRIMARY SCHOOL,BAKERY WAY,LANDKEY,BARNSTAPLE,DEVON,EX320LJ,Landkey CP
SOUTH BRENT PRIMARY SCHOOL-MAIN SCHOOL SITE,TOTNES ROAD,,SOUTH BRENT,DEVON,TQ109JN,South Brent CP
ST HELENS CHURCH OF ENGLAND PRIMARY SCHOOL ABBOTSHAM,,ABBOTSHAM,BIDEFORD,DEVON,EX395AP,Abbotsham CP
CHERITON FITZPAINE PRIMARY SCHOOL,WHITECROSS LANE,CHERITON FITZPAINE,CREDITON,DEVON,EX174LJ,Cheriton Fitzpaine CP
MORETONHAMPSTEAD PRIMARY SCHOOL,BETTON WAY,MORETONHAMPSTEAD,NEWTON ABBOT,DEVON,TQ138NA,Moretonhampstead CP
CLYST HEATH NURSERY AND COMMUNITY PRIMARY SCHOOL,ROYAL CRESCENT,CLYST HEATH,EXETER,DEVON,EX27QT,Exeter
ST LUKES CHURCH OF ENGLAND SCIENCE & SPORTS COLLEGE,HARTS LANE,WHIPTON,EXETER,DEVON,EX13RD,Exeter
ISCA COLLEGE OF MEDIA ARTS,EARL RICHARDS ROAD SOUTH,,EXETER,DEVON,EX26AP,Exeter
WYNSTREAM PRIMARY SCHOOL,BURNTHOUSE LANE,WONFORD,EXETER,DEVON,EX26AY,Exeter
ST JAMES SCHOOL-MAIN SCHOOL SITE,SUMMER LANE,,EXETER,DEVON,EX48NN,Exeter
ST JAMES SCHOOL-DETACHED PLAYING FIELD BELOW WILLOWBROOK,SUMMER LANE,,EXETER,DEVON,EX48NN,Exeter
HALWILL COMMUNITY PRIMARY SCHOOL,DREYBURY LANE,HALWILL JUNCTION,BEAFORD,DEVON,EX215XU,Halwill CP
EXWICK HEIGHTS PRIMARY SCHOOL,EXWICK LANE,EXWICK,EXETER,DEVON,EX42FB,Exeter
ST MICHAELS C OF E VA PRIMARY SCHOOL,SOUTH LAWN TERRACE,HEAVITREE,EXETER,DEVON,EX12SN,Exeter
ST SIDWELLS C of E PRIMARY SCHOOL,YORK ROAD,,EXETER,DEVON,EX46PG,Exeter
PINHOE C of E PRIMARY SCHOOL,HARRINGTON LANE,PINHOE,EXETER,DEVON,EX48PE,
ST NICHOLAS CATHOLIC PRIMARY SCHOOL,RINGSWELL AVENUE,,EXETER,DEVON,EX13EG,Exeter
WOODWATER ACADEMY (formerly WALTER DAW PRIMARY SCHOOL),WOODWATER LANE,,EXETER,DEVON,EX25AW,Exeter
ST PETERS CHURCH OF ENGLAND AIDED SCHOOL,QUARRY LANE,MIDDLEMOOR,EXETER,DEVON,EX25AP,Exeter
ST ANDREWS CHURCH OF ENGLAND PRIMARY SCHOOL (Chardstock),,CHARDSTOCK,AXMINSTER,DEVON,EX137BJ,Chardstock CP
DARTINGTON CHURCH OF ENGLAND PRIMARY SCHOOL,,DARTINGTON,TOTNES,DEVON,TQ96JU,Dartington CP
DARTINGTON CHURCH OF ENGLAND PRIMARY SCHOOL - CAR PARK,Shinners Bridge,Dartington,Totnes,Devon,TQ96JU,Dartington CP
ST MARTINS C OF E VA PRIMARY AND NURSERY SCHOOL,YOUNG HAYES ROAD,CRANBROOK,EXETER,DEVON,EX57DT,Broad Clyst CP
BAMPTON CHURCH OF ENGLAND PRIMARY SCHOOL,SCHOOL CLOSE,BAMPTON,TIVERTON,DEVON,EX169NW,Bampton CP
BIDEFORD COMMUNITY COLLEGE,ABBOTSHAM ROAD,,BIDEFORD,DEVON,EX393AR,
FORMER BIDEFORD COLLEGE-GENEVA PLACE SITE,ABBOTSHAM ROAD,,BIDEFORD,DEVON,EX393AR,
BIDEFORD COLLEGE-MORETON PARK PLAYING FIELDS,ABBOTSHAM ROAD,,BIDEFORD,DEVON,EX393AR,
BIDEFORD COLLEGE-MORETON WOODS,ABBOTSHAM ROAD,,BIDEFORD,DEVON,EX393AR,
MONTGOMERY PRIMARY SCHOOL,REDVERS ROAD,ST THOMAS,EXETER,DEVON,EX41BS,Exeter
